{
  "norad_id": 27844,
  "name": "CUTE-1 (CO-55)",
  "history": [
    {
      "epoch": "2026-03-28T17:48:57.609216",
      "apogee_km": 818.5481484392831,
      "perigee_km": 803.2709931335676,
      "latitude_deg": 22.695689764616457,
      "longitude_deg": -84.33598976023495,
      "semi_major_axis_km": 7189.046570786425,
      "eccentricity": 0.00106253,
      "inclination_deg": 98.6773,
      "raan_deg": 97.3052,
      "arg_perigee_deg": 62.9133,
      "mean_anomaly_deg": 297.3129,
      "mean_motion_rev_day": 14.24281445
    }
  ]
}